QIANFAN-97              
1 66039U 25233G   25352.46985494  .00000027  00000+0  15152-4 0  9991
2 66039  88.9956  61.5500 0016860  34.0829 326.1415 13.75278872  8768
QIANFAN-98              
1 66040U 25233H   25352.60183305  .00000060  00000+0  36048-4 0  9994
2 66040  88.9955  61.4591 0015611  28.3535 331.8486 13.92094742  8820
QIANFAN-99              
1 66041U 25233J   25352.55120082  .00000052  00000+0  42271-4 0  9998
2 66041  88.9957  61.5436 0016535  29.4757 330.7336 13.73599993  8779
QIANFAN-100             
1 66042U 25233K   25352.58203514  .00000055  00000+0  37562-4 0  9994
2 66042  88.9959  61.4749 0016602  33.1226 327.0980 13.83720604  8811
QIANFAN-101             
1 66043U 25233L   25352.62794446  .00000258  00000+0  10071-3 0  9999
2 66043  88.9957  61.3521 0015370  24.5987 335.5937 14.26679497  8880
QIANFAN-102             
1 66044U 25233M   25352.11597834 -.02104672  00000+0 -23666+1 0  9996
2 66044  88.9952  61.5719 0009576  41.2618 318.9268 13.75054461  8721
QIANFAN-103             
1 66045U 25233N   25352.12584045 -.02078745  00000+0 -24626+1 0  9996
2 66045  88.9953  61.5914 0014117  28.2087 331.9838 13.71816896  8713
QIANFAN-104             
1 66046U 25233P   25352.12744867 -.02079920  00000+0 -23434+1 0  9999
2 66046  88.9954  61.5736 0009322  41.0348 319.1516 13.74886196  8727
